ONEWEB-0098             
1 45442U 20020U   25124.47322825  .00000394  00000+0  10761-2 0  9992
2 45442  87.8802 102.5278 0001822  92.6208 267.5128 13.11414523249077
ONEWEB-0055             
1 45443U 20020V   25124.45627471  .00000476  00000+0  13074-2 0  9997
2 45443  87.8806 102.5335 0001972  86.7764 273.3589 13.11416329249042
ONEWEB-0093             
1 45444U 20020W   25124.43179837 -.00000442  00000+0 -12844-2 0  9993
2 45444  87.8806 102.5217 0002219  75.0771 285.0602 13.11415554249108
ONEWEB-0029             
1 45445U 20020X   25124.45027022  .00000286  00000+0  76972-3 0  9991
2 45445  87.8807 102.5315 0001982  80.0281 280.1071 13.11417693249086
ONEWEB-0068             
1 45446U 20020Y   25124.43153682 -.00000501  00000+0 -14495-2 0  9995
2 45446  87.8806 102.5232 0001969  80.8676 279.2675 13.11417470249021
ONEWEB-0046             
1 45447U 20020Z   25124.49949116 -.00000905  00000+0 -25890-2 0  9996
2 45447  87.8806 102.5196 0002296  82.5480 277.5909 13.11416073249048
ONEWEB-0063             
1 45448U 20020AA  25124.45202400  .00000046  00000+0  93578-4 0  9995
2 45448  87.8805 102.5272 0002303  87.4308 272.7083 13.11417375249120
ONEWEB-0019             
1 45449U 20020AB  25124.42652167 -.00000504  00000+0 -14568-2 0  9993
2 45449  87.8810 102.5481 0001853  92.8590 267.2750 13.11416977248969
